{
  "type": "FeatureCollection",
  "features": [
    {
      "type": "Feature",
      "geometry": {
        "type": "Point",
        "coordinates": [
          137.1657643,
          34.9606825
        ]
      },
      "properties": {
        "name": "いそべりょうじ",
        "address": "八幡町",
        "color": "#0288D1",
        "style_id": "0288D1"
      }
    },
    {
      "type": "Feature",
      "geometry": {
        "type": "Point",
        "coordinates": [
          137.1791748,
          34.9400048
        ]
      },
      "properties": {
        "name": "いとう正義",
        "address": "竜美東2丁目",
        "color": "#F57C00",
        "style_id": "F57C00"
      }
    },
    {
      "type": "Feature",
      "geometry": {
        "type": "Point",
        "coordinates": [
          137.1252492,
          34.9489531
        ]
      },
      "properties": {
        "name": "いまちよしたか",
        "address": "大和町",
        "color": "#0288D1",
        "style_id": "0288D1"
      }
    },
    {
      "type": "Feature",
      "geometry": {
        "type": "Point",
        "coordinates": [
          137.1697261,
          34.9158619
        ]
      },
      "properties": {
        "name": "おおはらまさゆき",
        "address": "若松東２丁目",
        "color": "#0288D1",
        "style_id": "0288D1"
      }
    },
    {
      "type": "Feature",
      "geometry": {
        "type": "Point",
        "coordinates": [
          137.3266162,
          35.0014713
        ]
      },
      "properties": {
        "name": "おぎのひでのり",
        "address": "小久田町",
        "color": "#0288D1",
        "style_id": "0288D1"
      }
    },
    {
      "type": "Feature",
      "geometry": {
        "type": "Point",
        "coordinates": [
          137.1529666,
          34.9257772
        ]
      },
      "properties": {
        "name": "おだたかゆき",
        "address": "柱３丁目",
        "color": "#0288D1",
        "style_id": "0288D1"
      }
    },
    {
      "type": "Feature",
      "geometry": {
        "type": "Point",
        "coordinates": [
          137.2264444,
          34.9693034
        ]
      },
      "properties": {
        "name": "かとうふみあき",
        "address": "田口町",
        "color": "#0288D1",
        "style_id": "0288D1"
      }
    },
    {
      "type": "Feature",
      "geometry": {
        "type": "Point",
        "coordinates": [
          137.1739931,
          34.9227972
        ]
      },
      "properties": {
        "name": "かとうよしや",
        "address": "羽根町",
        "color": "#0288D1",
        "style_id": "0288D1"
      }
    },
    {
      "type": "Feature",
      "geometry": {
        "type": "Point",
        "coordinates": [
          137.159365,
          34.9006312
        ]
      },
      "properties": {
        "name": "かとうよしゆき",
        "address": "上地町",
        "color": "#0288D1",
        "style_id": "0288D1"
      }
    },
    {
      "type": "Feature",
      "geometry": {
        "type": "Point",
        "coordinates": [
          137.1447412,
          34.9145793
        ]
      },
      "properties": {
        "name": "かなやまなおき",
        "address": "野畑町",
        "color": "#0288D1",
        "style_id": "0288D1"
      }
    },
    {
      "type": "Feature",
      "geometry": {
        "type": "Point",
        "coordinates": [
          137.2065055,
          34.9307942
        ]
      },
      "properties": {
        "name": "かみやしげき",
        "address": "岡町",
        "color": "#0288D1",
        "style_id": "0288D1"
      }
    },
    {
      "type": "Feature",
      "geometry": {
        "type": "Point",
        "coordinates": [
          137.2060064,
          34.9178084
        ]
      },
      "properties": {
        "name": "さかいしょういち",
        "address": "藤川荒古",
        "color": "#0288D1",
        "style_id": "0288D1"
      }
    },
    {
      "type": "Feature",
      "geometry": {
        "type": "Point",
        "coordinates": [
          137.1386491,
          34.9897497
        ]
      },
      "properties": {
        "name": "さとうてつろう",
        "address": "北野町",
        "color": "#0288D1",
        "style_id": "0288D1"
      }
    },
    {
      "type": "Feature",
      "geometry": {
        "type": "Point",
        "coordinates": [
          137.192284,
          34.9409105
        ]
      },
      "properties": {
        "name": "しばたとしみつ",
        "address": "大平町",
        "color": "#0288D1",
        "style_id": "0288D1"
      }
    },
    {
      "type": "Feature",
      "geometry": {
        "type": "Point",
        "coordinates": [
          137.155404,
          34.9279667
        ]
      },
      "properties": {
        "name": "しらいまさき",
        "address": "羽根西2丁目",
        "color": "#0288D1",
        "style_id": "0288D1"
      }
    },
    {
      "type": "Feature",
      "geometry": {
        "type": "Point",
        "coordinates": [
          137.1130704,
          34.884986
        ]
      },
      "properties": {
        "name": "すぎうらひさなお",
        "address": "中島町",
        "color": "#0288D1",
        "style_id": "0288D1"
      }
    },
    {
      "type": "Feature",
      "geometry": {
        "type": "Point",
        "coordinates": [
          137.1575368,
          34.9387679
        ]
      },
      "properties": {
        "name": "すぎやまとものり",
        "address": "六名東町",
        "color": "#0288D1",
        "style_id": "0288D1"
      }
    },
    {
      "type": "Feature",
      "geometry": {
        "type": "Point",
        "coordinates": [
          137.2752844,
          34.9317849
        ]
      },
      "properties": {
        "name": "すずきしずお",
        "address": "桜井寺町",
        "color": "#0288D1",
        "style_id": "0288D1"
      }
    },
    {
      "type": "Feature",
      "geometry": {
        "type": "Point",
        "coordinates": [
          137.1756668,
          34.9228324
        ]
      },
      "properties": {
        "name": "すずきひでき",
        "address": "羽根町",
        "color": "#0288D1",
        "style_id": "0288D1"
      }
    },
    {
      "type": "Feature",
      "geometry": {
        "type": "Point",
        "coordinates": [
          137.154947,
          34.9264984
        ]
      },
      "properties": {
        "name": "すずきまさこ",
        "address": "羽根西新町",
        "color": "#0288D1",
        "style_id": "0288D1"
      }
    },
    {
      "type": "Feature",
      "geometry": {
        "type": "Point",
        "coordinates": [
          137.1843571,
          34.9165822
        ]
      },
      "properties": {
        "name": "せとせいたろう",
        "address": "緑丘3丁目",
        "color": "#0288D1",
        "style_id": "0288D1"
      }
    },
    {
      "type": "Feature",
      "geometry": {
        "type": "Point",
        "coordinates": [
          137.1435227,
          34.9603006
        ]
      },
      "properties": {
        "name": "たぐちまさお",
        "address": "矢作町",
        "color": "#0288D1",
        "style_id": "0288D1"
      }
    },
    {
      "type": "Feature",
      "geometry": {
        "type": "Point",
        "coordinates": [
          137.1886094,
          34.9252052
        ]
      },
      "properties": {
        "name": "つちやなおき",
        "address": "美合町",
        "color": "#0288D1",
        "style_id": "0288D1"
      }
    },
    {
      "type": "Feature",
      "geometry": {
        "type": "Point",
        "coordinates": [
          137.2020418,
          34.9902894
        ]
      },
      "properties": {
        "name": "なかねたけひこ",
        "address": "滝町",
        "color": "#0288D1",
        "style_id": "0288D1"
      }
    },
    {
      "type": "Feature",
      "geometry": {
        "type": "Point",
        "coordinates": [
          137.2069214,
          34.9698459
        ]
      },
      "properties": {
        "name": "なかねよしあき",
        "address": "箱柳町",
        "color": "#0288D1",
        "style_id": "0288D1"
      }
    },
    {
      "type": "Feature",
      "geometry": {
        "type": "Point",
        "coordinates": [
          137.2030718,
          34.9902894
        ]
      },
      "properties": {
        "name": "のじまさつき",
        "address": "滝町",
        "color": "#0288D1",
        "style_id": "0288D1"
      }
    },
    {
      "type": "Feature",
      "geometry": {
        "type": "Point",
        "coordinates": [
          137.1746027,
          34.9744007
        ]
      },
      "properties": {
        "name": "ののやまゆういちろう",
        "address": "伊賀新町",
        "color": "#0288D1",
        "style_id": "0288D1"
      }
    },
    {
      "type": "Feature",
      "geometry": {
        "type": "Point",
        "coordinates": [
          137.159365,
          34.9232028
        ]
      },
      "properties": {
        "name": "のもとあつし",
        "address": "柱町",
        "color": "#0288D1",
        "style_id": "0288D1"
      }
    },
    {
      "type": "Feature",
      "geometry": {
        "type": "Point",
        "coordinates": [
          137.1886253,
          34.9539899
        ]
      },
      "properties": {
        "name": "はたじりのりなが",
        "address": "欠町",
        "color": "#0288D1",
        "style_id": "0288D1"
      }
    },
    {
      "type": "Feature",
      "geometry": {
        "type": "Point",
        "coordinates": [
          137.1502246,
          34.9807007
        ]
      },
      "properties": {
        "name": "はちすかいちろう",
        "address": "大門1丁目",
        "color": "#0288D1",
        "style_id": "0288D1"
      }
    },
    {
      "type": "Feature",
      "geometry": {
        "type": "Point",
        "coordinates": [
          137.1764209,
          35.0271894
        ]
      },
      "properties": {
        "name": "はらのりひこ",
        "address": "細川町",
        "color": "#0288D1",
        "style_id": "0288D1"
      }
    },
    {
      "type": "Feature",
      "geometry": {
        "type": "Point",
        "coordinates": [
          137.1398675,
          34.9688575
        ]
      },
      "properties": {
        "name": "ふくだすみよ",
        "address": "中園町",
        "color": "#0288D1",
        "style_id": "0288D1"
      }
    },
    {
      "type": "Feature",
      "geometry": {
        "type": "Point",
        "coordinates": [
          137.1471782,
          34.9494862
        ]
      },
      "properties": {
        "name": "ほんだしょう",
        "address": "八帖南町",
        "color": "#0288D1",
        "style_id": "0288D1"
      }
    },
    {
      "type": "Feature",
      "geometry": {
        "type": "Point",
        "coordinates": [
          137.1276853,
          34.9409925
        ]
      },
      "properties": {
        "name": "まえだれいこ",
        "address": "東牧内町",
        "color": "#0288D1",
        "style_id": "0288D1"
      }
    },
    {
      "type": "Feature",
      "geometry": {
        "type": "Point",
        "coordinates": [
          137.1691166,
          34.9838552
        ]
      },
      "properties": {
        "name": "みうらやすひろ",
        "address": "鴨田町",
        "color": "#0288D1",
        "style_id": "0288D1"
      }
    },
    {
      "type": "Feature",
      "geometry": {
        "type": "Point",
        "coordinates": [
          137.161498,
          34.963901
        ]
      },
      "properties": {
        "name": "やなせとおる",
        "address": "松本町",
        "color": "#0288D1",
        "style_id": "0288D1"
      }
    },
    {
      "type": "Feature",
      "geometry": {
        "type": "Point",
        "coordinates": [
          137.2118015,
          34.9403654
        ]
      },
      "properties": {
        "name": "やまむらさかえ",
        "address": "丸山町",
        "color": "#0288D1",
        "style_id": "0288D1"
      }
    },
    {
      "type": "Feature",
      "geometry": {
        "type": "Point",
        "coordinates": [
          137.1526333,
          34.9841553
        ]
      },
      "properties": {
        "name": "なかね　よしたか",
        "address": "岡崎市大門5丁目13番地12",
        "color": "#7CB342",
        "style_id": "7CB342"
      }
    },
    {
      "type": "Feature",
      "geometry": {
        "type": "Point",
        "coordinates": [
          137.1936883,
          34.9874725
        ]
      },
      "properties": {
        "name": "すずき　まさと",
        "address": "岡崎市滝町河原ケ13－3",
        "color": "#7CB342",
        "style_id": "7CB342"
      }
    },
    {
      "type": "Feature",
      "geometry": {
        "type": "Point",
        "coordinates": [
          137.1613742,
          34.9814613
        ]
      },
      "properties": {
        "name": "やまぐち　たけし",
        "address": "岡崎市大樹寺3丁目1－7－105号",
        "color": "#7CB342",
        "style_id": "7CB342"
      }
    },
    {
      "type": "Feature",
      "geometry": {
        "type": "Point",
        "coordinates": [
          137.1738668,
          34.9551155
        ]
      },
      "properties": {
        "name": "そのやま　やすお",
        "address": "岡崎市伝馬通5丁目68",
        "color": "#7CB342",
        "style_id": "7CB342"
      }
    },
    {
      "type": "Feature",
      "geometry": {
        "type": "Point",
        "coordinates": [
          137.1537341,
          34.9218578
        ]
      },
      "properties": {
        "name": "しんかい　まさはる",
        "address": "岡崎市柱6丁目8番地4",
        "color": "#7CB342",
        "style_id": "7CB342"
      }
    }
  ]
}